[{"OBJECT_NAME":"ONEWEB-0189","OBJECT_ID":"2021-031H","EPOCH":"2026-02-05T18:48:43.571232","MEAN_MOTION":13.14503605,"ECCENTRICITY":0.00016645,"INCLINATION":87.9033,"RA_OF_ASC_NODE":315.8939,"ARG_OF_PERICENTER":89.8627,"MEAN_ANOMALY":270.2693,"EPHEMERIS_TYPE":0,"CLASSIFICATION_TYPE":"U","NORAD_CAT_ID":48217,"ELEMENT_SET_NO":999,"REV_AT_EPOCH":23096,"BSTAR":-0.0001003683,"MEAN_MOTION_DOT":-2.4e-7,"MEAN_MOTION_DDOT":0},{"OBJECT_NAME":"ONEWEB-0196","OBJECT_ID":"2021-031J","EPOCH":"2026-02-06T05:14:24.311616","MEAN_MOTION":13.14503476,"ECCENTRICITY":0.00017453,"INCLINATION":87.9027,"RA_OF_ASC_NODE":315.8191,"ARG_OF_PERICENTER":79.8209,"MEAN_ANOMALY":280.3117,"EPHEMERIS_TYPE":0,"CLASSIFICATION_TYPE":"U","NORAD_CAT_ID":48218,"ELEMENT_SET_NO":999,"REV_AT_EPOCH":23102,"BSTAR":0.00077752066,"MEAN_MOTION_DOT":3.01e-6,"MEAN_MOTION_DDOT":0},{"OBJECT_NAME":"ONEWEB-0183","OBJECT_ID":"2021-031K","EPOCH":"2026-02-06T04:37:52.233888","MEAN_MOTION":13.14503561,"ECCENTRICITY":0.00018788,"INCLINATION":87.9018,"RA_OF_ASC_NODE":315.8248,"ARG_OF_PERICENTER":74.9575,"MEAN_ANOMALY":285.1763,"EPHEMERIS_TYPE":0,"CLASSIFICATION_TYPE":"U","NORAD_CAT_ID":48219,"ELEMENT_SET_NO":999,"REV_AT_EPOCH":23111,"BSTAR":-0.00014422885,"MEAN_MOTION_DOT":-4.1e-7,"MEAN_MOTION_DDOT":0},{"OBJECT_NAME":"ONEWEB-0185","OBJECT_ID":"2021-031L","EPOCH":"2026-02-06T05:15:33.545664","MEAN_MOTION":13.14503571,"ECCENTRICITY":0.00021187,"INCLINATION":87.9028,"RA_OF_ASC_NODE":315.8043,"ARG_OF_PERICENTER":78.9858,"MEAN_ANOMALY":281.151,"EPHEMERIS_TYPE":0,"CLASSIFICATION_TYPE":"U","NORAD_CAT_ID":48220,"ELEMENT_SET_NO":999,"REV_AT_EPOCH":23104,"BSTAR":0.0008169726,"MEAN_MOTION_DOT":3.16e-6,"MEAN_MOTION_DDOT":0},{"OBJECT_NAME":"ONEWEB-0187","OBJECT_ID":"2021-031M","EPOCH":"2026-02-06T04:46:48.878976","MEAN_MOTION":13.1450397,"ECCENTRICITY":0.00018893,"INCLINATION":87.9016,"RA_OF_ASC_NODE":315.8426,"ARG_OF_PERICENTER":83.8068,"MEAN_ANOMALY":276.3277,"EPHEMERIS_TYPE":0,"CLASSIFICATION_TYPE":"U","NORAD_CAT_ID":48221,"ELEMENT_SET_NO":999,"REV_AT_EPOCH":23105,"BSTAR":0.00011392988,"MEAN_MOTION_DOT":5.5e-7,"MEAN_MOTION_DDOT":0},{"OBJECT_NAME":"ONEWEB-0192","OBJECT_ID":"2021-031N","EPOCH":"2026-02-06T04:03:37.125216","MEAN_MOTION":13.14502631,"ECCENTRICITY":0.00016817,"INCLINATION":87.9019,"RA_OF_ASC_NODE":315.8386,"ARG_OF_PERICENTER":81.8442,"MEAN_ANOMALY":278.2879,"EPHEMERIS_TYPE":0,"CLASSIFICATION_TYPE":"U","NORAD_CAT_ID":48222,"ELEMENT_SET_NO":999,"REV_AT_EPOCH":23096,"BSTAR":-0.00048559132,"MEAN_MOTION_DOT":-1.67e-6,"MEAN_MOTION_DDOT":0},{"OBJECT_NAME":"ONEWEB-0219","OBJECT_ID":"2021-031P","EPOCH":"2026-02-05T20:15:30.083616","MEAN_MOTION":13.14503184,"ECCENTRICITY":0.00019098,"INCLINATION":87.9027,"RA_OF_ASC_NODE":315.8855,"ARG_OF_PERICENTER":81.3694,"MEAN_ANOMALY":278.7652,"EPHEMERIS_TYPE":0,"CLASSIFICATION_TYPE":"U","NORAD_CAT_ID":48223,"ELEMENT_SET_NO":999,"REV_AT_EPOCH":23112,"BSTAR":0.0004765277,"MEAN_MOTION_DOT":1.89e-6,"MEAN_MOTION_DDOT":0},{"OBJECT_NAME":"ONEWEB-0202","OBJECT_ID":"2021-031Q","EPOCH":"2026-02-06T04:56:08.534976","MEAN_MOTION":13.14502765,"ECCENTRICITY":0.00015682,"INCLINATION":87.9022,"RA_OF_ASC_NODE":315.8226,"ARG_OF_PERICENTER":103.1255,"MEAN_ANOMALY":257.005,"EPHEMERIS_TYPE":0,"CLASSIFICATION_TYPE":"U","NORAD_CAT_ID":48224,"ELEMENT_SET_NO":999,"REV_AT_EPOCH":23115,"BSTAR":0.00040954271,"MEAN_MOTION_DOT":1.65e-6,"MEAN_MOTION_DDOT":0},{"OBJECT_NAME":"ONEWEB-0204","OBJECT_ID":"2021-031R","EPOCH":"2026-02-05T18:47:33.957888","MEAN_MOTION":13.14503771,"ECCENTRICITY":0.00020076,"INCLINATION":87.903,"RA_OF_ASC_NODE":315.8997,"ARG_OF_PERICENTER":73.8337,"MEAN_ANOMALY":286.3014,"EPHEMERIS_TYPE":0,"CLASSIFICATION_TYPE":"U","NORAD_CAT_ID":48225,"ELEMENT_SET_NO":999,"REV_AT_EPOCH":23099,"BSTAR":-0.00017838584,"MEAN_MOTION_DOT":-5.3e-7,"MEAN_MOTION_DDOT":0},{"OBJECT_NAME":"ONEWEB-0205","OBJECT_ID":"2021-031S","EPOCH":"2026-02-06T05:09:51.054336","MEAN_MOTION":13.14503563,"ECCENTRICITY":0.00018483,"INCLINATION":87.9024,"RA_OF_ASC_NODE":315.8065,"ARG_OF_PERICENTER":81.5708,"MEAN_ANOMALY":278.5631,"EPHEMERIS_TYPE":0,"CLASSIFICATION_TYPE":"U","NORAD_CAT_ID":48226,"ELEMENT_SET_NO":999,"REV_AT_EPOCH":23106,"BSTAR":0.00073000741,"MEAN_MOTION_DOT":2.83e-6,"MEAN_MOTION_DDOT":0},{"OBJECT_NAME":"ONEWEB-0206","OBJECT_ID":"2021-031T","EPOCH":"2026-02-06T04:31:01.019136","MEAN_MOTION":13.14504412,"ECCENTRICITY":0.00014768,"INCLINATION":87.9036,"RA_OF_ASC_NODE":315.8083,"ARG_OF_PERICENTER":72.6298,"MEAN_ANOMALY":287.4993,"EPHEMERIS_TYPE":0,"CLASSIFICATION_TYPE":"U","NORAD_CAT_ID":48227,"ELEMENT_SET_NO":999,"REV_AT_EPOCH":23101,"BSTAR":-0.0003529255,"MEAN_MOTION_DOT":-1.18e-6,"MEAN_MOTION_DDOT":0},{"OBJECT_NAME":"ONEWEB-0182","OBJECT_ID":"2021-031U","EPOCH":"2026-02-06T04:24:10.197504","MEAN_MOTION":13.14503597,"ECCENTRICITY":0.00018883,"INCLINATION":87.9024,"RA_OF_ASC_NODE":315.8264,"ARG_OF_PERICENTER":73.3891,"MEAN_ANOMALY":286.7446,"EPHEMERIS_TYPE":0,"CLASSIFICATION_TYPE":"U","NORAD_CAT_ID":48228,"ELEMENT_SET_NO":999,"REV_AT_EPOCH":23122,"BSTAR":-0.00041457555,"MEAN_MOTION_DOT":-1.41e-6,"MEAN_MOTION_DDOT":0},{"OBJECT_NAME":"ONEWEB-0186","OBJECT_ID":"2021-031V","EPOCH":"2026-02-06T04:40:09.021504","MEAN_MOTION":13.14505418,"ECCENTRICITY":0.00017578,"INCLINATION":87.9029,"RA_OF_ASC_NODE":315.8093,"ARG_OF_PERICENTER":80.8824,"MEAN_ANOMALY":279.2505,"EPHEMERIS_TYPE":0,"CLASSIFICATION_TYPE":"U","NORAD_CAT_ID":48229,"ELEMENT_SET_NO":999,"REV_AT_EPOCH":23117,"BSTAR":8.6007685e-5,"MEAN_MOTION_DOT":4.5e-7,"MEAN_MOTION_DDOT":0},{"OBJECT_NAME":"ONEWEB-0181","OBJECT_ID":"2021-031W","EPOCH":"2026-02-06T04:08:11.482368","MEAN_MOTION":13.14503879,"ECCENTRICITY":0.00017311,"INCLINATION":87.9013,"RA_OF_ASC_NODE":315.8594,"ARG_OF_PERICENTER":84.0451,"MEAN_ANOMALY":276.0876,"EPHEMERIS_TYPE":0,"CLASSIFICATION_TYPE":"U","NORAD_CAT_ID":48230,"ELEMENT_SET_NO":999,"REV_AT_EPOCH":23102,"BSTAR":-0.00041593173,"MEAN_MOTION_DOT":-1.41e-6,"MEAN_MOTION_DDOT":0},{"OBJECT_NAME":"ONEWEB-0188","OBJECT_ID":"2021-031X","EPOCH":"2026-02-06T05:02:59.323776","MEAN_MOTION":13.14502735,"ECCENTRICITY":0.00017613,"INCLINATION":87.9015,"RA_OF_ASC_NODE":315.8501,"ARG_OF_PERICENTER":77.269,"MEAN_ANOMALY":282.8636,"EPHEMERIS_TYPE":0,"CLASSIFICATION_TYPE":"U","NORAD_CAT_ID":48231,"ELEMENT_SET_NO":999,"REV_AT_EPOCH":23093,"BSTAR":0.00064529766,"MEAN_MOTION_DOT":2.52e-6,"MEAN_MOTION_DDOT":0},{"OBJECT_NAME":"ONEWEB-0220","OBJECT_ID":"2021-031Y","EPOCH":"2026-02-05T19:02:24.870624","MEAN_MOTION":13.14502358,"ECCENTRICITY":0.00018934,"INCLINATION":87.9032,"RA_OF_ASC_NODE":315.8877,"ARG_OF_PERICENTER":81.3664,"MEAN_ANOMALY":278.768,"EPHEMERIS_TYPE":0,"CLASSIFICATION_TYPE":"U","NORAD_CAT_ID":48232,"ELEMENT_SET_NO":999,"REV_AT_EPOCH":23114,"BSTAR":-0.00075434392,"MEAN_MOTION_DOT":-2.67e-6,"MEAN_MOTION_DDOT":0}]
