ONEWEB-0189             
1 48217U 21031H   26036.78383763 -.00000024  00000+0 -10037-3 0  9992
2 48217  87.9033 315.8939 0001664  89.8627 270.2693 13.14503605230966
ONEWEB-0196             
1 48218U 21031J   26037.21833694  .00000301  00000+0  77752-3 0  9998
2 48218  87.9027 315.8191 0001745  79.8209 280.3117 13.14503476231022
ONEWEB-0183             
1 48219U 21031K   26037.19296567 -.00000041  00000+0 -14423-3 0  9997
2 48219  87.9018 315.8248 0001878  74.9575 285.1763 13.14503561231110
ONEWEB-0185             
1 48220U 21031L   26037.21913826  .00000316  00000+0  81697-3 0  9996
2 48220  87.9028 315.8043 0002118  78.9858 281.1510 13.14503571231041
ONEWEB-0187             
1 48221U 21031M   26037.19917684  .00000055  00000+0  11393-3 0  9996
2 48221  87.9016 315.8426 0001889  83.8068 276.3277 13.14503970231056
ONEWEB-0192             
1 48222U 21031N   26037.16917969 -.00000167  00000+0 -48559-3 0  9990
2 48222  87.9019 315.8386 0001681  81.8442 278.2879 13.14502631230960
ONEWEB-0219             
1 48223U 21031P   26036.84409819  .00000189  00000+0  47653-3 0  9991
2 48223  87.9027 315.8855 0001909  81.3694 278.7652 13.14503184231125
ONEWEB-0202             
1 48224U 21031Q   26037.20565434  .00000165  00000+0  40954-3 0  9990
2 48224  87.9022 315.8226 0001568 103.1255 257.0050 13.14502765231159
ONEWEB-0204             
1 48225U 21031R   26036.78303192 -.00000053  00000+0 -17839-3 0  9998
2 48225  87.9030 315.8997 0002007  73.8337 286.3014 13.14503771230991
ONEWEB-0205             
1 48226U 21031S   26037.21517424  .00000283  00000+0  73001-3 0  9999
2 48226  87.9024 315.8065 0001848  81.5708 278.5631 13.14503563231067
ONEWEB-0206             
1 48227U 21031T   26037.18820624 -.00000118  00000+0 -35293-3 0  9995
2 48227  87.9036 315.8083 0001476  72.6298 287.4993 13.14504412231012
ONEWEB-0182             
1 48228U 21031U   26037.18345136 -.00000141  00000+0 -41458-3 0  9992
2 48228  87.9024 315.8264 0001888  73.3891 286.7446 13.14503597231226
ONEWEB-0186             
1 48229U 21031V   26037.19454886  .00000045  00000+0  86008-4 0  9999
2 48229  87.9029 315.8093 0001757  80.8824 279.2505 13.14505418231177
ONEWEB-0181             
1 48230U 21031W   26037.17235512 -.00000141  00000+0 -41593-3 0  9990
2 48230  87.9013 315.8594 0001731  84.0451 276.0876 13.14503879231021
ONEWEB-0188             
1 48231U 21031X   26037.21040884  .00000252  00000+0  64530-3 0  9999
2 48231  87.9015 315.8501 0001761  77.2690 282.8636 13.14502735230932
ONEWEB-0220             
1 48232U 21031Y   26036.79334341 -.00000267  00000+0 -75434-3 0  9999
2 48232  87.9032 315.8877 0001893  81.3664 278.7680 13.14502358231149
